ONEWEB-0672             
1 55831U 23029AM  25270.59633168  .00000003  00000+0 -24721-4 0  9998
2 55831  87.9247 326.7997 0002138  95.0001 265.1377 13.20770380126486
ONEWEB-0673             
1 55832U 23029AN  25271.24441842  .00000065  00000+0  13087-3 0  9997
2 55832  87.9291 357.0492 0001718 107.4183 252.7138 13.19726345124356
ONEWEB-0674             
1 55833U 23029AP  25271.10704444  .00000290  00000+0  74660-3 0  9997
2 55833  87.9073 341.9290 0001494  82.7452 277.3848 13.14502350124981
ONEWEB-0675             
1 55834U 23029AQ  25270.80531696  .00000018  00000+0  13834-4 0  9996
2 55834  87.9277 357.1784 0002068 104.8524 255.2838 13.19725901124314
ONEWEB-0720             
1 55835U 23029AR  25271.17649514  .00000126  00000+0  28178-3 0  9993
2 55835  87.9278 357.1016 0001492 109.4765 250.6529 13.19728106124284
ONEWEB-0537             
1 56046U 23043A   25271.08109447 -.00000053  00000+0 -17240-3 0  9999
2 56046  87.8978 280.9960 0002055  93.0349 267.1017 13.16593439124470
ONEWEB-0538             
1 56047U 23043B   25271.07473361 -.00000332  00000+0 -90343-3 0  9993
2 56047  87.8969 281.0080 0001927  99.6106 260.5243 13.16593090124488
ONEWEB-0546             
1 56048U 23043C   25271.06208555 -.00000061  00000+0 -19280-3 0  9994
2 56048  87.8979 280.9940 0002555  88.9609 271.1815 13.16595225124474
ONEWEB-0547             
1 56049U 23043D   25271.11282142  .00000091  00000+0  18794-3 0  9995
2 56049  87.9178 296.2711 0001794  97.2915 262.8422 13.21825717123603
ONEWEB-0548             
1 56050U 23043E   25271.01139892  .00000053  00000+0  10535-3 0  9992
2 56050  87.8954 281.0242 0001694  75.1510 284.9809 13.16596518124469
ONEWEB-0549             
1 56051U 23043F   25271.10414883  .00000048  00000+0  84050-4 0  9997
2 56051  87.9181 296.2884 0001815 102.1835 257.9503 13.21825152123600
ONEWEB-0550             
1 56052U 23043G   25271.01583299  .00000091  00000+0  18957-3 0  9996
2 56052  87.9182 296.3003 0001881  87.6856 272.4494 13.21825655123596
ONEWEB-0551             
1 56053U 23043H   25271.06167693 -.00000079  00000+0 -24348-3 0  9997
2 56053  87.9004 311.5462 0001710 101.3855 258.7467 13.15547204121930
ONEWEB-0552             
1 56054U 23043J   25271.08520889  .00000097  00000+0  20383-3 0  9993
2 56054  87.9180 296.2949 0001601  97.0775 263.0541 13.21827476123603
ONEWEB-0553             
1 56055U 23043K   25271.06841832 -.00000033  00000+0 -11915-3 0  9999
2 56055  87.8966 281.0076 0002207  85.9651 274.1732 13.16595164124482
ONEWEB-0554             
1 56056U 23043L   25271.05576312 -.00000019  00000+0 -82760-4 0  9998
2 56056  87.8959 281.0330 0001818  82.4929 277.6408 13.16594488124469
