[{"OBJECT_NAME":"ONEWEB-0672","OBJECT_ID":"2023-029AM","EPOCH":"2025-09-27T14:18:43.057152","MEAN_MOTION":13.2077038,"ECCENTRICITY":0.00021383,"INCLINATION":87.9247,"RA_OF_ASC_NODE":326.7997,"ARG_OF_PERICENTER":95.0001,"MEAN_ANOMALY":265.1377,"EPHEMERIS_TYPE":0,"CLASSIFICATION_TYPE":"U","NORAD_CAT_ID":55831,"ELEMENT_SET_NO":999,"REV_AT_EPOCH":12648,"BSTAR":-2.4721001e-5,"MEAN_MOTION_DOT":3.0e-8,"MEAN_MOTION_DDOT":0},{"OBJECT_NAME":"ONEWEB-0673","OBJECT_ID":"2023-029AN","EPOCH":"2025-09-28T05:51:57.751488","MEAN_MOTION":13.19726345,"ECCENTRICITY":0.00017186,"INCLINATION":87.9291,"RA_OF_ASC_NODE":357.0492,"ARG_OF_PERICENTER":107.4183,"MEAN_ANOMALY":252.7138,"EPHEMERIS_TYPE":0,"CLASSIFICATION_TYPE":"U","NORAD_CAT_ID":55832,"ELEMENT_SET_NO":999,"REV_AT_EPOCH":12435,"BSTAR":0.0001308724,"MEAN_MOTION_DOT":6.5e-7,"MEAN_MOTION_DDOT":0},{"OBJECT_NAME":"ONEWEB-0674","OBJECT_ID":"2023-029AP","EPOCH":"2025-09-28T02:34:08.639616","MEAN_MOTION":13.1450235,"ECCENTRICITY":0.00014945,"INCLINATION":87.9073,"RA_OF_ASC_NODE":341.929,"ARG_OF_PERICENTER":82.7452,"MEAN_ANOMALY":277.3848,"EPHEMERIS_TYPE":0,"CLASSIFICATION_TYPE":"U","NORAD_CAT_ID":55833,"ELEMENT_SET_NO":999,"REV_AT_EPOCH":12498,"BSTAR":0.00074659939,"MEAN_MOTION_DOT":2.9e-6,"MEAN_MOTION_DDOT":0},{"OBJECT_NAME":"ONEWEB-0675","OBJECT_ID":"2023-029AQ","EPOCH":"2025-09-27T19:19:39.385344","MEAN_MOTION":13.19725901,"ECCENTRICITY":0.00020686,"INCLINATION":87.9277,"RA_OF_ASC_NODE":357.1784,"ARG_OF_PERICENTER":104.8524,"MEAN_ANOMALY":255.2838,"EPHEMERIS_TYPE":0,"CLASSIFICATION_TYPE":"U","NORAD_CAT_ID":55834,"ELEMENT_SET_NO":999,"REV_AT_EPOCH":12431,"BSTAR":1.3834381e-5,"MEAN_MOTION_DOT":1.8e-7,"MEAN_MOTION_DDOT":0},{"OBJECT_NAME":"ONEWEB-0720","OBJECT_ID":"2023-029AR","EPOCH":"2025-09-28T04:14:09.180096","MEAN_MOTION":13.19728106,"ECCENTRICITY":0.00014923,"INCLINATION":87.9278,"RA_OF_ASC_NODE":357.1016,"ARG_OF_PERICENTER":109.4765,"MEAN_ANOMALY":250.6529,"EPHEMERIS_TYPE":0,"CLASSIFICATION_TYPE":"U","NORAD_CAT_ID":55835,"ELEMENT_SET_NO":999,"REV_AT_EPOCH":12428,"BSTAR":0.00028178194,"MEAN_MOTION_DOT":1.26e-6,"MEAN_MOTION_DDOT":0},{"OBJECT_NAME":"ONEWEB-0537","OBJECT_ID":"2023-043A","EPOCH":"2025-09-28T01:56:46.562208","MEAN_MOTION":13.16593439,"ECCENTRICITY":0.00020557,"INCLINATION":87.8978,"RA_OF_ASC_NODE":280.996,"ARG_OF_PERICENTER":93.0349,"MEAN_ANOMALY":267.1017,"EPHEMERIS_TYPE":0,"CLASSIFICATION_TYPE":"U","NORAD_CAT_ID":56046,"ELEMENT_SET_NO":999,"REV_AT_EPOCH":12447,"BSTAR":-0.00017239629,"MEAN_MOTION_DOT":-5.3e-7,"MEAN_MOTION_DDOT":0},{"OBJECT_NAME":"ONEWEB-0538","OBJECT_ID":"2023-043B","EPOCH":"2025-09-28T01:47:36.983904","MEAN_MOTION":13.1659309,"ECCENTRICITY":0.00019273,"INCLINATION":87.8969,"RA_OF_ASC_NODE":281.008,"ARG_OF_PERICENTER":99.6106,"MEAN_ANOMALY":260.5243,"EPHEMERIS_TYPE":0,"CLASSIFICATION_TYPE":"U","NORAD_CAT_ID":56047,"ELEMENT_SET_NO":999,"REV_AT_EPOCH":12448,"BSTAR":-0.00090342541,"MEAN_MOTION_DOT":-3.32e-6,"MEAN_MOTION_DDOT":0},{"OBJECT_NAME":"ONEWEB-0546","OBJECT_ID":"2023-043C","EPOCH":"2025-09-28T01:29:24.191520","MEAN_MOTION":13.16595225,"ECCENTRICITY":0.00025553,"INCLINATION":87.8979,"RA_OF_ASC_NODE":280.994,"ARG_OF_PERICENTER":88.9609,"MEAN_ANOMALY":271.1815,"EPHEMERIS_TYPE":0,"CLASSIFICATION_TYPE":"U","NORAD_CAT_ID":56048,"ELEMENT_SET_NO":999,"REV_AT_EPOCH":12447,"BSTAR":-0.00019279862,"MEAN_MOTION_DOT":-6.1e-7,"MEAN_MOTION_DDOT":0},{"OBJECT_NAME":"ONEWEB-0547","OBJECT_ID":"2023-043D","EPOCH":"2025-09-28T02:42:27.770688","MEAN_MOTION":13.21825717,"ECCENTRICITY":0.00017941,"INCLINATION":87.9178,"RA_OF_ASC_NODE":296.2711,"ARG_OF_PERICENTER":97.2915,"MEAN_ANOMALY":262.8422,"EPHEMERIS_TYPE":0,"CLASSIFICATION_TYPE":"U","NORAD_CAT_ID":56049,"ELEMENT_SET_NO":999,"REV_AT_EPOCH":12360,"BSTAR":0.00018794127,"MEAN_MOTION_DOT":9.1e-7,"MEAN_MOTION_DDOT":0},{"OBJECT_NAME":"ONEWEB-0548","OBJECT_ID":"2023-043E","EPOCH":"2025-09-28T00:16:24.866688","MEAN_MOTION":13.16596518,"ECCENTRICITY":0.00016948,"INCLINATION":87.8954,"RA_OF_ASC_NODE":281.0242,"ARG_OF_PERICENTER":75.151,"MEAN_ANOMALY":284.9809,"EPHEMERIS_TYPE":0,"CLASSIFICATION_TYPE":"U","NORAD_CAT_ID":56050,"ELEMENT_SET_NO":999,"REV_AT_EPOCH":12446,"BSTAR":0.0001053454,"MEAN_MOTION_DOT":5.3e-7,"MEAN_MOTION_DDOT":0},{"OBJECT_NAME":"ONEWEB-0549","OBJECT_ID":"2023-043F","EPOCH":"2025-09-28T02:29:58.458912","MEAN_MOTION":13.21825152,"ECCENTRICITY":0.00018154,"INCLINATION":87.9181,"RA_OF_ASC_NODE":296.2884,"ARG_OF_PERICENTER":102.1835,"MEAN_ANOMALY":257.9503,"EPHEMERIS_TYPE":0,"CLASSIFICATION_TYPE":"U","NORAD_CAT_ID":56051,"ELEMENT_SET_NO":999,"REV_AT_EPOCH":12360,"BSTAR":8.405011e-5,"MEAN_MOTION_DOT":4.8e-7,"MEAN_MOTION_DDOT":0},{"OBJECT_NAME":"ONEWEB-0550","OBJECT_ID":"2023-043G","EPOCH":"2025-09-28T00:22:47.970336","MEAN_MOTION":13.21825655,"ECCENTRICITY":0.00018815,"INCLINATION":87.9182,"RA_OF_ASC_NODE":296.3003,"ARG_OF_PERICENTER":87.6856,"MEAN_ANOMALY":272.4494,"EPHEMERIS_TYPE":0,"CLASSIFICATION_TYPE":"U","NORAD_CAT_ID":56052,"ELEMENT_SET_NO":999,"REV_AT_EPOCH":12359,"BSTAR":0.00018956616,"MEAN_MOTION_DOT":9.1e-7,"MEAN_MOTION_DDOT":0},{"OBJECT_NAME":"ONEWEB-0551","OBJECT_ID":"2023-043H","EPOCH":"2025-09-28T01:28:48.886752","MEAN_MOTION":13.15547204,"ECCENTRICITY":0.00017104,"INCLINATION":87.9004,"RA_OF_ASC_NODE":311.5462,"ARG_OF_PERICENTER":101.3855,"MEAN_ANOMALY":258.7467,"EPHEMERIS_TYPE":0,"CLASSIFICATION_TYPE":"U","NORAD_CAT_ID":56053,"ELEMENT_SET_NO":999,"REV_AT_EPOCH":12193,"BSTAR":-0.00024348381,"MEAN_MOTION_DOT":-7.9e-7,"MEAN_MOTION_DDOT":0},{"OBJECT_NAME":"ONEWEB-0552","OBJECT_ID":"2023-043J","EPOCH":"2025-09-28T02:02:42.048096","MEAN_MOTION":13.21827476,"ECCENTRICITY":0.0001601,"INCLINATION":87.918,"RA_OF_ASC_NODE":296.2949,"ARG_OF_PERICENTER":97.0775,"MEAN_ANOMALY":263.0541,"EPHEMERIS_TYPE":0,"CLASSIFICATION_TYPE":"U","NORAD_CAT_ID":56054,"ELEMENT_SET_NO":999,"REV_AT_EPOCH":12360,"BSTAR":0.00020382995,"MEAN_MOTION_DOT":9.7e-7,"MEAN_MOTION_DDOT":0},{"OBJECT_NAME":"ONEWEB-0553","OBJECT_ID":"2023-043K","EPOCH":"2025-09-28T01:38:31.342848","MEAN_MOTION":13.16595164,"ECCENTRICITY":0.00022072,"INCLINATION":87.8966,"RA_OF_ASC_NODE":281.0076,"ARG_OF_PERICENTER":85.9651,"MEAN_ANOMALY":274.1732,"EPHEMERIS_TYPE":0,"CLASSIFICATION_TYPE":"U","NORAD_CAT_ID":56055,"ELEMENT_SET_NO":999,"REV_AT_EPOCH":12448,"BSTAR":-0.00011914626,"MEAN_MOTION_DOT":-3.3e-7,"MEAN_MOTION_DDOT":0},{"OBJECT_NAME":"ONEWEB-0554","OBJECT_ID":"2023-043L","EPOCH":"2025-09-28T01:20:17.933568","MEAN_MOTION":13.16594488,"ECCENTRICITY":0.00018181,"INCLINATION":87.8959,"RA_OF_ASC_NODE":281.033,"ARG_OF_PERICENTER":82.4929,"MEAN_ANOMALY":277.6408,"EPHEMERIS_TYPE":0,"CLASSIFICATION_TYPE":"U","NORAD_CAT_ID":56056,"ELEMENT_SET_NO":999,"REV_AT_EPOCH":12446,"BSTAR":-8.275967e-5,"MEAN_MOTION_DOT":-1.9e-7,"MEAN_MOTION_DDOT":0}]
